Satellite_550_23_16
1 02216U 00000A   23121.00000000  .00000000  00000+0  12222-5 0  9993
2 02216  53.0000 110.0000 0002000  90.0000 300.4545 15.07819960  9998
Satellite_550_23_17
1 02217U 00000A   23121.00000000  .00000000  00000+0  12222-5 0  9994
2 02217  53.0000 110.0000 0002000  90.0000 316.8182 15.07819960  9997
Satellite_550_23_18
1 02218U 00000A   23121.00000000  .00000000  00000+0  12222-5 0  9995
2 02218  53.0000 110.0000 0002000  90.0000 333.1818 15.07819960  9996
Satellite_550_23_19
1 02219U 00000A   23121.00000000  .00000000  00000+0  12222-5 0  9996
2 02219  53.0000 110.0000 0002000  90.0000 349.5455 15.07819960  9995
Satellite_550_23_20
1 02220U 00000A   23121.00000000  .00000000  00000+0  12222-5 0  9998
2 02220  53.0000 110.0000 0002000  90.0000 365.9091 15.07819960  9995
Satellite_550_23_21
1 02221U 00000A   23121.00000000  .00000000  00000+0  12222-5 0  9999
2 02221  53.0000 110.0000 0002000  90.0000 382.2727 15.07819960  9994
Satellite_550_23_22
1 02222U 00000A   23121.00000000  .00000000  00000+0  12222-5 0  9990
2 02222  53.0000 110.0000 0002000  90.0000 398.6364 15.07819960  9993
Satellite_550_24_1
1 02301U 00000A   23121.00000000  .00000000  00000+0  12222-5 0  9998
2 02301  53.0000 115.0000 0002000  81.8182  57.5000 15.07819960  9993
Satellite_550_24_2
1 02302U 00000A   23121.00000000  .00000000  00000+0  12222-5 0  9999
2 02302  53.0000 115.0000 0002000  81.8182  73.8636 15.07819960  9990
Satellite_550_24_3
1 02303U 00000A   23121.00000000  .00000000  00000+0  12222-5 0  9990
2 02303  53.0000 115.0000 0002000  81.8182  90.2273 15.07819960  9991
Satellite_550_24_4
1 02304U 00000A   23121.00000000  .00000000  00000+0  12222-5 0  9991
2 02304  53.0000 115.0000 0002000  81.8182 106.5909 15.07819960  9999
Satellite_550_24_5
1 02305U 00000A   23121.00000000  .00000000  00000+0  12222-5 0  9992
2 02305  53.0000 115.0000 0002000  81.8182 122.9545 15.07819960  9998
Satellite_550_24_6
1 02306U 00000A   23121.00000000  .00000000  00000+0  12222-5 0  9993
2 02306  53.0000 115.0000 0002000  81.8182 139.3182 15.07819960  9998
Satellite_550_24_7
1 02307U 00000A   23121.00000000  .00000000  00000+0  12222-5 0  9994
2 02307  53.0000 115.0000 0002000  81.8182 155.6818 15.07819960  9996
Satellite_550_24_8
1 02308U 00000A   23121.00000000  .00000000  00000+0  12222-5 0  9995
2 02308  53.0000 115.0000 0002000  81.8182 172.0455 15.07819960  9997
Satellite_550_24_9
1 02309U 00000A   23121.00000000  .00000000  00000+0  12222-5 0  9996
2 02309  53.0000 115.0000 0002000  81.8182 188.4091 15.07819960  9995
Satellite_550_24_10
1 02310U 00000A   23121.00000000  .00000000  00000+0  12222-5 0  9998
2 02310  53.0000 115.0000 0002000  81.8182 204.7727 15.07819960  9995
Satellite_550_24_11
1 02311U 00000A   23121.00000000  .00000000  00000+0  12222-5 0  9999
2 02311  53.0000 115.0000 0002000  81.8182 221.1364 15.07819960  9996
Satellite_550_24_12
1 02312U 00000A   23121.00000000  .00000000  00000+0  12222-5 0  9990
2 02312  53.0000 115.0000 0002000  81.8182 237.5000 15.07819960  9995
Satellite_550_24_13
1 02313U 00000A   23121.00000000  .00000000  00000+0  12222-5 0  9991
2 02313  53.0000 115.0000 0002000  81.8182 253.8636 15.07819960  9992
Satellite_550_24_14
1 02314U 00000A   23121.00000000  .00000000  00000+0  12222-5 0  9992
2 02314  53.0000 115.0000 0002000  81.8182 270.2273 15.07819960  9993
Satellite_550_24_15
1 02315U 00000A   23121.00000000  .00000000  00000+0  12222-5 0  9993
2 02315  53.0000 115.0000 0002000  81.8182 286.5909 15.07819960  9990
Satellite_550_24_16
1 02316U 00000A   23121.00000000  .00000000  00000+0  12222-5 0  9994
2 02316  53.0000 115.0000 0002000  81.8182 302.9545 15.07819960  9990
Satellite_550_24_17
1 02317U 00000A   23121.00000000  .00000000  00000+0  12222-5 0  9995
2 02317  53.0000 115.0000 0002000  81.8182 319.3182 15.07819960  9990
Satellite_550_24_18
1 02318U 00000A   23121.00000000  .00000000  00000+0  12222-5 0  9996
2 02318  53.0000 115.0000 0002000  81.8182 335.6818 15.07819960  9998
Satellite_550_24_19
1 02319U 00000A   23121.00000000  .00000000  00000+0  12222-5 0  9997
2 02319  53.0000 115.0000 0002000  81.8182 352.0455 15.07819960  9999
Satellite_550_24_20
1 02320U 00000A   23121.00000000  .00000000  00000+0  12222-5 0  9999
2 02320  53.0000 115.0000 0002000  81.8182 368.4091 15.07819960  9998
Satellite_550_24_21
1 02321U 00000A   23121.00000000  .00000000  00000+0  12222-5 0  9990
2 02321  53.0000 115.0000 0002000  81.8182 384.7727 15.07819960  9996
Satellite_550_24_22
1 02322U 00000A   23121.00000000  .00000000  00000+0  12222-5 0  9991
2 02322  53.0000 115.0000 0002000  81.8182 401.1364 15.07819960  9998
Satellite_550_25_1
1 02401U 00000A   23121.00000000  .00000000  00000+0  12222-5 0  9999
2 02401  53.0000 120.0000 0002000  90.0000  60.0000 15.07819960  9990
Satellite_550_25_2
1 02402U 00000A   23121.00000000  .00000000  00000+0  12222-5 0  9990
2 02402  53.0000 120.0000 0002000  90.0000  76.3636 15.07819960  9996
Satellite_550_25_3
1 02403U 00000A   23121.00000000  .00000000  00000+0  12222-5 0  9991
2 02403  53.0000 120.0000 0002000  90.0000  92.7273 15.07819960  9996
Satellite_550_25_4
1 02404U 00000A   23121.00000000  .00000000  00000+0  12222-5 0  9992
2 02404  53.0000 120.0000 0002000  90.0000 109.0909 15.07819960  9995
Satellite_550_25_5
1 02405U 00000A   23121.00000000  .00000000  00000+0  12222-5 0  9993
2 02405  53.0000 120.0000 0002000  90.0000 125.4545 15.07819960  9994
Satellite_550_25_6
1 02406U 00000A   23121.00000000  .00000000  00000+0  12222-5 0  9994
2 02406  53.0000 120.0000 0002000  90.0000 141.8182 15.07819960  9994
Satellite_550_25_7
1 02407U 00000A   23121.00000000  .00000000  00000+0  12222-5 0  9995
2 02407  53.0000 120.0000 0002000  90.0000 158.1818 15.07819960  9992
Satellite_550_25_8
1 02408U 00000A   23121.00000000  .00000000  00000+0  12222-5 0  9996
2 02408  53.0000 120.0000 0002000  90.0000 174.5455 15.07819960  9992
Satellite_550_25_9
1 02409U 00000A   23121.00000000  .00000000  00000+0  12222-5 0  9997
2 02409  53.0000 120.0000 0002000  90.0000 190.9091 15.07819960  9991
Satellite_550_25_10
1 02410U 00000A   23121.00000000  .00000000  00000+0  12222-5 0  9999
2 02410  53.0000 120.0000 0002000  90.0000 207.2727 15.07819960  9991
Satellite_550_25_11
1 02411U 00000A   23121.00000000  .00000000  00000+0  12222-5 0  9990
2 02411  53.0000 120.0000 0002000  90.0000 223.6364 15.07819960  9991
Satellite_550_25_12
1 02412U 00000A   23121.00000000  .00000000  00000+0  12222-5 0  9991
2 02412  53.0000 120.0000 0002000  90.0000 240.0000 15.07819960  9992
Satellite_550_25_13
1 02413U 00000A   23121.00000000  .00000000  00000+0  12222-5 0  9992
2 02413  53.0000 120.0000 0002000  90.0000 256.3636 15.07819960  9998
Satellite_550_25_14
1 02414U 00000A   23121.00000000  .00000000  00000+0  12222-5 0  9993
2 02414  53.0000 120.0000 0002000  90.0000 272.7273 15.07819960  9998
Satellite_550_25_15
1 02415U 00000A   23121.00000000  .00000000  00000+0  12222-5 0  9994
2 02415  53.0000 120.0000 0002000  90.0000 289.0909 15.07819960  9996
Satellite_550_25_16
1 02416U 00000A   23121.00000000  .00000000  00000+0  12222-5 0  9995
2 02416  53.0000 120.0000 0002000  90.0000 305.4545 15.07819960  9996
Satellite_550_25_17
1 02417U 00000A   23121.00000000  .00000000  00000+0  12222-5 0  9996
2 02417  53.0000 120.0000 0002000  90.0000 321.8182 15.07819960  9996
Satellite_550_25_18
1 02418U 00000A   23121.00000000  .00000000  00000+0  12222-5 0  9997
2 02418  53.0000 120.0000 0002000  90.0000 338.1818 15.07819960  9994
Satellite_550_25_19
1 02419U 00000A   23121.00000000  .00000000  00000+0  12222-5 0  9998
2 02419  53.0000 120.0000 0002000  90.0000 354.5455 15.07819960  9994
Satellite_550_25_20
1 02420U 00000A   23121.00000000  .00000000  00000+0  12222-5 0  9990
2 02420  53.0000 120.0000 0002000  90.0000 370.9091 15.07819960  9994
Satellite_550_25_21
1 02421U 00000A   23121.00000000  .00000000  00000+0  12222-5 0  9991
2 02421  53.0000 120.0000 0002000  90.0000 387.2727 15.07819960  9992
Satellite_550_25_22
1 02422U 00000A   23121.00000000  .00000000  00000+0  12222-5 0  9992
2 02422  53.0000 120.0000 0002000  90.0000 403.6364 15.07819960  9993
Satellite_550_26_1
1 02501U 00000A   23121.00000000  .00000000  00000+0  12222-5 0  9990
2 02501  53.0000 125.0000 0002000  81.8182  62.5000 15.07819960  9992
Satellite_550_26_2
1 02502U 00000A   23121.00000000  .00000000  00000+0  12222-5 0  9991
2 02502  53.0000 125.0000 0002000  81.8182  78.8636 15.07819960  9998
Satellite_550_26_3
1 02503U 00000A   23121.00000000  .00000000  00000+0  12222-5 0  9992
2 02503  53.0000 125.0000 0002000  81.8182  95.2273 15.07819960  9999
Satellite_550_26_4
1 02504U 00000A   23121.00000000  .00000000  00000+0  12222-5 0  9993
2 02504  53.0000 125.0000 0002000  81.8182 111.5909 15.07819960  9998
Satellite_550_26_5
1 02505U 00000A   23121.00000000  .00000000  00000+0  12222-5 0  9994
2 02505  53.0000 125.0000 0002000  81.8182 127.9545 15.07819960  9996
Satellite_550_26_6
1 02506U 00000A   23121.00000000  .00000000  00000+0  12222-5 0  9995
2 02506  53.0000 125.0000 0002000  81.8182 144.3182 15.07819960  9997
Satellite_550_26_7
1 02507U 00000A   23121.00000000  .00000000  00000+0  12222-5 0  9996
2 02507  53.0000 125.0000 0002000  81.8182 160.6818 15.07819960  9995
Satellite_550_26_8
1 02508U 00000A   23121.00000000  .00000000  00000+0  12222-5 0  9997
2 02508  53.0000 125.0000 0002000  81.8182 177.0455 15.07819960  9995
Satellite_550_26_9
1 02509U 00000A   23121.00000000  .00000000  00000+0  12222-5 0  9998
2 02509  53.0000 125.0000 0002000  81.8182 193.4091 15.07819960  9994
Satellite_550_26_10
1 02510U 00000A   23121.00000000  .00000000  00000+0  12222-5 0  9990
2 02510  53.0000 125.0000 0002000  81.8182 209.7727 15.07819960  9993
Satellite_550_26_11
1 02511U 00000A   23121.00000000  .00000000  00000+0  12222-5 0  9991
2 02511  53.0000 125.0000 0002000  81.8182 226.1364 15.07819960  9994
